1 08820U 76039A   03342.71205714 -.00000000  00000-0  10000-3 0  9885
2 08820 109.8324 241.3487 0044336 264.1214  95.4431  6.38664641388207
